[{"OBJECT_NAME":"CS1","OBJECT_ID":"2021-088B","EPOCH":"2026-03-09T18:02:30.253920","MEAN_MOTION":15.31848439,"ECCENTRICITY":0.00141292,"INCLINATION":97.3882,"RA_OF_ASC_NODE":132.1684,"ARG_OF_PERICENTER":78.0335,"MEAN_ANOMALY":282.249,"EPHEMERIS_TYPE":0,"CLASSIFICATION_TYPE":"U","NORAD_CAT_ID":49261,"ELEMENT_SET_NO":999,"REV_AT_EPOCH":24518,"BSTAR":0.00051175576,"MEAN_MOTION_DOT":0.00015722,"MEAN_MOTION_DDOT":0},{"OBJECT_NAME":"STARLINK-35140","OBJECT_ID":"2025-198K","EPOCH":"2026-03-09T19:49:39.823104","MEAN_MOTION":15.30197411,"ECCENTRICITY":9.481e-5,"INCLINATION":53.1588,"RA_OF_ASC_NODE":270.1745,"ARG_OF_PERICENTER":84.2458,"MEAN_ANOMALY":275.865,"EPHEMERIS_TYPE":0,"CLASSIFICATION_TYPE":"U","NORAD_CAT_ID":65501,"ELEMENT_SET_NO":999,"REV_AT_EPOCH":2864,"BSTAR":0.00070378302,"MEAN_MOTION_DOT":0.00020541,"MEAN_MOTION_DDOT":0}]
